ONEWEB-0199             
1 48234U 21031AA  24148.51173464 -.00000035  00000+0 -12870-3 0  9998
2 48234  87.8965  79.0500 0002013  76.4858 283.6496 13.14500307149647
ONEWEB-0203             
1 48235U 21031AB  24148.50222064  .00000139  00000+0  34060-3 0  9997
2 48235  87.8965  79.0530 0002331  89.1682 270.9714 13.14501431149652
ONEWEB-0197             
1 48236U 21031AC  24148.85823139  .00000271  00000+0  69579-3 0  9996
2 48236  87.8965  78.9906 0001643  78.9651 281.1663 13.14502640149611
ONEWEB-0194             
1 48237U 21031AD  24148.53235148  .00000182  00000+0  45510-3 0  9999
2 48237  87.8970  79.0486 0001825  99.3381 260.7955 13.14500015149747
ONEWEB-0193             
1 48238U 21031AE  24148.54820556  .00000216  00000+0  54743-3 0  9990
2 48238  87.8964  79.0536 0002169  80.5230 279.6145 13.14504072149695
ONEWEB-0191             
1 48239U 21031AF  24148.55931165 -.00000169  00000+0 -49000-3 0  9990
2 48239  87.8962  79.0356 0002233  78.4586 281.6794 13.14504229149558
ONEWEB-0195             
1 48240U 21031AG  24148.84078183 -.00000091  00000+0 -28037-3 0  9997
2 48240  87.8964  78.9788 0002383  72.6357 287.5034 13.14500656149571
ONEWEB-0201             
1 48241U 21031AH  24148.52520888 -.00000126  00000+0 -37519-3 0  9991
2 48241  87.8968  79.0756 0002106  79.2609 280.8757 13.14504749149765
